[
  {
    "place_name": "nisi",
    "lat": 48.8168007,
    "long": 2.6402346
  },
  {
    "place_name": "vestibulum",
    "lat": 19.368252,
    "long": -99.296058
  },
  {
    "place_name": "eget",
    "lat": 20.4915633,
    "long": 106.0081819
  },
  {
    "place_name": "varius",
    "lat": 39.4582827,
    "long": -31.1338071
  },
  {
    "place_name": "non",
    "lat": 34.75245,
    "long": 109.239163
  },
  {
    "place_name": "non",
    "lat": 55.1518222,
    "long": 33.279163
  },
  {
    "place_name": "dapibus",
    "lat": 48.305818,
    "long": 4.024099
  },
  {
    "place_name": "lobortis",
    "lat": 11.6578757,
    "long": 122.3054783
  },
  {
    "place_name": "in",
    "lat": -0.5202646,
    "long": 166.9513432
  },
  {
    "place_name": "hendrerit",
    "lat": 35.0612128,
    "long": 33.4047109
  },
  {
    "place_name": "erat",
    "lat": 4.087552,
    "long": 11.20197
  },
  {
    "place_name": "enim",
    "lat": 37.910325,
    "long": 93.341907
  },
  {
    "place_name": "erat",
    "lat": 59.2542117,
    "long": 18.027354
  },
  {
    "place_name": "vulputate",
    "lat": 52.4127967,
    "long": 17.9186809
  },
  {
    "place_name": "vitae",
    "lat": 49.4940668,
    "long": 18.0992378
  },
  {
    "place_name": "cursus",
    "lat": -7.361477,
    "long": 108.103677
  },
  {
    "place_name": "quis",
    "lat": 19.015744,
    "long": 108.916255
  },
  {
    "place_name": "in",
    "lat": 55.906648,
    "long": 94.7518395
  },
  {
    "place_name": "in",
    "lat": 59.2766517,
    "long": 15.2072783
  },
  {
    "place_name": "sapien",
    "lat": 13.4345789,
    "long": 122.6430631
  },
  {
    "place_name": "vulputate",
    "lat": 48.8331738,
    "long": -1.6029573
  },
  {
    "place_name": "hac",
    "lat": 28.97602,
    "long": 120.083358
  },
  {
    "place_name": "non",
    "lat": 54.2084536,
    "long": 72.9614362
  },
  {
    "place_name": "vestibulum",
    "lat": 34.8336386,
    "long": 135.5304048
  },
  {
    "place_name": "montes",
    "lat": 26.4649188,
    "long": -80.1226012
  },
  {
    "place_name": "condimentum",
    "lat": 24.315499,
    "long": 109.410683
  },
  {
    "place_name": "lacinia",
    "lat": -13.8000058,
    "long": 32.8930441
  },
  {
    "place_name": "sapien",
    "lat": -17.5582645,
    "long": -49.5687416
  },
  {
    "place_name": "sed",
    "lat": 47.2299246,
    "long": 39.7503269
  },
  {
    "place_name": "posuere",
    "lat": 49.2706048,
    "long": -1.6509128
  },
  {
    "place_name": "sapien",
    "lat": 40.458916,
    "long": -7.8775484
  },
  {
    "place_name": "ut",
    "lat": 45.9536011,
    "long": 14.8386368
  },
  {
    "place_name": "elementum",
    "lat": 52.1173637,
    "long": 47.2076504
  },
  {
    "place_name": "sapien",
    "lat": 34.6882288,
    "long": 32.9550349
  },
  {
    "place_name": "donec",
    "lat": 28.607879,
    "long": 119.435806
  },
  {
    "place_name": "lorem",
    "lat": 49.84727,
    "long": 6.1062222
  },
  {
    "place_name": "varius",
    "lat": 49.9106966,
    "long": 16.9101736
  },
  {
    "place_name": "nulla",
    "lat": 56.9335219,
    "long": 24.2886319
  },
  {
    "place_name": "pulvinar",
    "lat": -7.1532,
    "long": 114.3304
  },
  {
    "place_name": "dis",
    "lat": 51.976466,
    "long": 21.215337
  },
  {
    "place_name": "lorem",
    "lat": 27.9375382,
    "long": -12.9262851
  },
  {
    "place_name": "id",
    "lat": 65.723731,
    "long": -17.354349
  },
  {
    "place_name": "amet",
    "lat": 28.285873,
    "long": 113.794351
  },
  {
    "place_name": "vitae",
    "lat": 22.928305,
    "long": 113.207187
  },
  {
    "place_name": "sit",
    "lat": 1.08142,
    "long": 100.24475
  },
  {
    "place_name": "in",
    "lat": 28.759126,
    "long": 115.856121
  },
  {
    "place_name": "etiam",
    "lat": 56.3072493,
    "long": 38.701054
  },
  {
    "place_name": "convallis",
    "lat": 37.6710023,
    "long": 139.8647618
  },
  {
    "place_name": "morbi",
    "lat": -8.605273,
    "long": 116.128038
  },
  {
    "place_name": "est",
    "lat": 36.3400071,
    "long": 137.8830829
  },
  {
    "place_name": "quam",
    "lat": 51.5646744,
    "long": 31.7847761
  },
  {
    "place_name": "natoque",
    "lat": 40.8570429,
    "long": 122.7613525
  },
  {
    "place_name": "metus",
    "lat": 52.3429156,
    "long": 16.8799555
  },
  {
    "place_name": "lorem",
    "lat": 53.1257,
    "long": 47.2041
  },
  {
    "place_name": "eros",
    "lat": 19.3468041,
    "long": -99.2002892
  },
  {
    "place_name": "et",
    "lat": 10.1985612,
    "long": 123.7192022
  },
  {
    "place_name": "non",
    "lat": -3.7331933,
    "long": 128.1530099
  },
  {
    "place_name": "blandit",
    "lat": 61.2429355,
    "long": 28.9205449
  },
  {
    "place_name": "penatibus",
    "lat": 53.8419317,
    "long": 14.6143984
  },
  {
    "place_name": "ut",
    "lat": 34.6330462,
    "long": 136.524372
  },
  {
    "place_name": "potenti",
    "lat": 48.8109783,
    "long": 25.431687
  },
  {
    "place_name": "justo",
    "lat": 49.5706463,
    "long": 3.6245097
  },
  {
    "place_name": "elementum",
    "lat": -7.3000408,
    "long": 108.3682641
  },
  {
    "place_name": "aliquet",
    "lat": 51.6551687,
    "long": 16.9564844
  },
  {
    "place_name": "quam",
    "lat": 17.9678128,
    "long": -77.6936948
  },
  {
    "place_name": "quis",
    "lat": -16.131343,
    "long": -62.0399534
  },
  {
    "place_name": "fusce",
    "lat": 56.6062481,
    "long": 24.5221788
  },
  {
    "place_name": "bibendum",
    "lat": -6.598,
    "long": 106.2248
  },
  {
    "place_name": "dui",
    "lat": 39.0493793,
    "long": 121.7791025
  },
  {
    "place_name": "ut",
    "lat": 36.5995041,
    "long": 117.0361834
  },
  {
    "place_name": "est",
    "lat": 67.792809,
    "long": 130.4017789
  },
  {
    "place_name": "dui",
    "lat": 45.4693392,
    "long": -73.4848038
  },
  {
    "place_name": "augue",
    "lat": 38.4664687,
    "long": -9.0952451
  },
  {
    "place_name": "nulla",
    "lat": 7.1000051,
    "long": 4.8416936
  },
  {
    "place_name": "aliquam",
    "lat": 52.0310393,
    "long": 85.8919042
  },
  {
    "place_name": "cubilia",
    "lat": 33.5590518,
    "long": 71.4915293
  },
  {
    "place_name": "pede",
    "lat": 22.615932,
    "long": 112.634486
  },
  {
    "place_name": "pede",
    "lat": 9.5920992,
    "long": 123.4719247
  },
  {
    "place_name": "justo",
    "lat": 50.5580426,
    "long": 136.9943857
  },
  {
    "place_name": "elit",
    "lat": 40.7049862,
    "long": 19.6490516
  },
  {
    "place_name": "duis",
    "lat": -24.068741,
    "long": -46.6512239
  },
  {
    "place_name": "dui",
    "lat": -26.7133106,
    "long": 27.1272547
  },
  {
    "place_name": "nibh",
    "lat": 38.430793,
    "long": 100.812859
  },
  {
    "place_name": "sociis",
    "lat": 65.3221906,
    "long": 21.4337149
  },
  {
    "place_name": "mus",
    "lat": 32.497877,
    "long": 119.975728
  },
  {
    "place_name": "luctus",
    "lat": 49.9727767,
    "long": 21.5148018
  },
  {
    "place_name": "in",
    "lat": -23.4157731,
    "long": -51.4264048
  },
  {
    "place_name": "non",
    "lat": 15.988415,
    "long": 120.3899324
  },
  {
    "place_name": "ipsum",
    "lat": 23.9179637,
    "long": 120.6775054
  },
  {
    "place_name": "lectus",
    "lat": 38.1663943,
    "long": 140.3006201
  },
  {
    "place_name": "suspendisse",
    "lat": 35.4018071,
    "long": 69.1447081
  },
  {
    "place_name": "in",
    "lat": 43.87437,
    "long": 126.582834
  },
  {
    "place_name": "ut",
    "lat": 30.183806,
    "long": 120.264253
  },
  {
    "place_name": "risus",
    "lat": 14.5697565,
    "long": 121.0247172
  },
  {
    "place_name": "etiam",
    "lat": 1.8786869,
    "long": 9.9716585
  },
  {
    "place_name": "lobortis",
    "lat": 41.7595825,
    "long": -7.4773543
  },
  {
    "place_name": "blandit",
    "lat": 47.2550409,
    "long": -1.5401497
  },
  {
    "place_name": "nisi",
    "lat": -8.1788865,
    "long": 112.5388072
  },
  {
    "place_name": "erat",
    "lat": 47.4636372,
    "long": -79.4387857
  },
  {
    "place_name": "in",
    "lat": 48.2576572,
    "long": 6.4140214
  },
  {
    "place_name": "rhoncus",
    "lat": -14.4765263,
    "long": -71.3957971
  },
  {
    "place_name": "consequat",
    "lat": 8.5802612,
    "long": -60.9983817
  },
  {
    "place_name": "nulla",
    "lat": 17.5971816,
    "long": 120.6096456
  },
  {
    "place_name": "ut",
    "lat": -10.8531643,
    "long": -37.1269791
  },
  {
    "place_name": "ante",
    "lat": -34.6945604,
    "long": -58.3120234
  },
  {
    "place_name": "amet",
    "lat": -6.8132152,
    "long": 108.5919461
  },
  {
    "place_name": "est",
    "lat": 22.299866,
    "long": 113.058484
  },
  {
    "place_name": "in",
    "lat": 27.7303815,
    "long": 112.0069982
  },
  {
    "place_name": "nisl",
    "lat": 50.0099822,
    "long": 17.0336959
  },
  {
    "place_name": "congue",
    "lat": 9.939624,
    "long": 126.065213
  },
  {
    "place_name": "platea",
    "lat": -7.3071,
    "long": 107.1272
  },
  {
    "place_name": "justo",
    "lat": 26.319938,
    "long": 113.810157
  },
  {
    "place_name": "diam",
    "lat": 28.701403,
    "long": 117.194396
  },
  {
    "place_name": "justo",
    "lat": 5.9052,
    "long": 120.9569
  },
  {
    "place_name": "molestie",
    "lat": 60.6858505,
    "long": 15.0446489
  },
  {
    "place_name": "porta",
    "lat": 46.1428433,
    "long": 14.4322399
  },
  {
    "place_name": "dapibus",
    "lat": 50.1681931,
    "long": 14.0545902
  },
  {
    "place_name": "lectus",
    "lat": 28.162833,
    "long": 113.643076
  },
  {
    "place_name": "id",
    "lat": 38.809086,
    "long": 112.214443
  },
  {
    "place_name": "ipsum",
    "lat": 12.0675239,
    "long": 123.7223625
  },
  {
    "place_name": "curabitur",
    "lat": 37.0237497,
    "long": 120.5622121
  },
  {
    "place_name": "tortor",
    "lat": 39.3666967,
    "long": -9.0250527
  },
  {
    "place_name": "ultrices",
    "lat": 23.404165,
    "long": 113.220218
  },
  {
    "place_name": "quis",
    "lat": 41.5113285,
    "long": -8.662365
  },
  {
    "place_name": "interdum",
    "lat": -23.7834562,
    "long": -53.0762805
  },
  {
    "place_name": "pede",
    "lat": 23.152382,
    "long": 113.341739
  },
  {
    "place_name": "tortor",
    "lat": 54.3736161,
    "long": 37.553869
  },
  {
    "place_name": "erat",
    "lat": 48.0386685,
    "long": -2.9231898
  },
  {
    "place_name": "viverra",
    "lat": -16.6488964,
    "long": -49.1565948
  },
  {
    "place_name": "cras",
    "lat": -8.3724396,
    "long": 123.4887939
  },
  {
    "place_name": "sapien",
    "lat": 49.7216794,
    "long": 18.3373855
  },
  {
    "place_name": "scelerisque",
    "lat": -3.69067,
    "long": 128.18478
  },
  {
    "place_name": "odio",
    "lat": 22.814304,
    "long": 115.955191
  },
  {
    "place_name": "vestibulum",
    "lat": -9.6666989,
    "long": 124.3365882
  },
  {
    "place_name": "primis",
    "lat": 32.0608187,
    "long": 36.0941795
  },
  {
    "place_name": "ante",
    "lat": 49.2275285,
    "long": 14.7209457
  },
  {
    "place_name": "hendrerit",
    "lat": 34.382014,
    "long": 105.504143
  },
  {
    "place_name": "leo",
    "lat": 9.0056327,
    "long": -62.6471664
  },
  {
    "place_name": "sapien",
    "lat": 52.0330418,
    "long": 5.1055921
  },
  {
    "place_name": "orci",
    "lat": -6.5079856,
    "long": 106.0875326
  },
  {
    "place_name": "ac",
    "lat": 43.4945737,
    "long": 5.8978018
  },
  {
    "place_name": "quis",
    "lat": 50.0920849,
    "long": 29.5436691
  },
  {
    "place_name": "vestibulum",
    "lat": 5.7022374,
    "long": -1.2842887
  },
  {
    "place_name": "duis",
    "lat": 7.5683211,
    "long": -72.4450467
  },
  {
    "place_name": "integer",
    "lat": -28.4748354,
    "long": -48.7837539
  },
  {
    "place_name": "posuere",
    "lat": 45.1459732,
    "long": 20.4917347
  },
  {
    "place_name": "turpis",
    "lat": 9.9298167,
    "long": -73.9590333
  },
  {
    "place_name": "in",
    "lat": 54.9896116,
    "long": 57.6874206
  },
  {
    "place_name": "suspendisse",
    "lat": 36.406404,
    "long": 94.928484
  },
  {
    "place_name": "convallis",
    "lat": -37.7068442,
    "long": 175.1468145
  },
  {
    "place_name": "semper",
    "lat": -8.4774,
    "long": 115.597
  },
  {
    "place_name": "neque",
    "lat": 46.5356403,
    "long": 15.2675136
  },
  {
    "place_name": "commodo",
    "lat": 13.8206796,
    "long": 120.9814426
  },
  {
    "place_name": "porta",
    "lat": 22.270978,
    "long": 113.576677
  },
  {
    "place_name": "nulla",
    "lat": 50.4897179,
    "long": 20.449178
  },
  {
    "place_name": "feugiat",
    "lat": 35.20105,
    "long": -91.8318333
  },
  {
    "place_name": "eleifend",
    "lat": 45.521519,
    "long": 3.5276642
  },
  {
    "place_name": "sapien",
    "lat": 22.714565,
    "long": 113.145504
  },
  {
    "place_name": "felis",
    "lat": 36.87117,
    "long": 121.509453
  },
  {
    "place_name": "imperdiet",
    "lat": -7.3497666,
    "long": 108.2288552
  },
  {
    "place_name": "nisi",
    "lat": 53.532995,
    "long": 57.5184732
  },
  {
    "place_name": "vivamus",
    "lat": 13.691158,
    "long": 99.8543504
  },
  {
    "place_name": "eget",
    "lat": -7.3162208,
    "long": 140.4308159
  },
  {
    "place_name": "sed",
    "lat": 18.0651384,
    "long": -77.4658948
  },
  {
    "place_name": "ante",
    "lat": 47.3591366,
    "long": 2.8002946
  },
  {
    "place_name": "proin",
    "lat": 24.479833,
    "long": 118.089425
  },
  {
    "place_name": "lobortis",
    "lat": 49.9609687,
    "long": 13.9706421
  },
  {
    "place_name": "aliquam",
    "lat": -19.8552965,
    "long": -44.6113601
  },
  {
    "place_name": "enim",
    "lat": 22.3723336,
    "long": -80.1484407
  },
  {
    "place_name": "dictumst",
    "lat": -0.7069135,
    "long": 31.5370003
  },
  {
    "place_name": "nibh",
    "lat": 57.8721328,
    "long": 54.7288281
  },
  {
    "place_name": "luctus",
    "lat": 22.517585,
    "long": 113.39277
  },
  {
    "place_name": "vivamus",
    "lat": 29.673196,
    "long": 110.73404
  },
  {
    "place_name": "molestie",
    "lat": 47.827308,
    "long": 88.131842
  },
  {
    "place_name": "luctus",
    "lat": 24.5552816,
    "long": 68.9071861
  },
  {
    "place_name": "iaculis",
    "lat": 43.09476,
    "long": 45.35898
  },
  {
    "place_name": "amet",
    "lat": 38.453095,
    "long": 114.600138
  },
  {
    "place_name": "pellentesque",
    "lat": 54.8630265,
    "long": 46.3388109
  },
  {
    "place_name": "nisl",
    "lat": 9.0592797,
    "long": -79.4154819
  },
  {
    "place_name": "nibh",
    "lat": 46.8515406,
    "long": 40.3138699
  },
  {
    "place_name": "ipsum",
    "lat": 14.5668553,
    "long": 120.9987005
  },
  {
    "place_name": "nibh",
    "lat": 49.7529886,
    "long": 21.9739202
  },
  {
    "place_name": "felis",
    "lat": 14.9163748,
    "long": -23.6040974
  },
  {
    "place_name": "id",
    "lat": 8.0275138,
    "long": 79.8367828
  },
  {
    "place_name": "magnis",
    "lat": -7.1687046,
    "long": 108.3652973
  },
  {
    "place_name": "nisl",
    "lat": 27.229632,
    "long": 115.135507
  },
  {
    "place_name": "ut",
    "lat": 41.187621,
    "long": 111.062933
  },
  {
    "place_name": "ac",
    "lat": 39.367146,
    "long": 26.1751462
  },
  {
    "place_name": "malesuada",
    "lat": 39.793846,
    "long": 116.7156302
  },
  {
    "place_name": "mollis",
    "lat": 28.572029,
    "long": 109.482078
  },
  {
    "place_name": "turpis",
    "lat": 7.9301365,
    "long": 1.9710284
  },
  {
    "place_name": "blandit",
    "lat": 24.0288453,
    "long": 120.5624474
  },
  {
    "place_name": "nunc",
    "lat": 38.988364,
    "long": 139.9488853
  },
  {
    "place_name": "morbi",
    "lat": 18.7634836,
    "long": -70.3352881
  },
  {
    "place_name": "a",
    "lat": 48.7997482,
    "long": 2.4699259
  },
  {
    "place_name": "sit",
    "lat": 36.3489618,
    "long": 37.5347993
  },
  {
    "place_name": "turpis",
    "lat": 59.8452242,
    "long": 60.7235532
  },
  {
    "place_name": "diam",
    "lat": 40.1430734,
    "long": -8.7570417
  },
  {
    "place_name": "a",
    "lat": 42.0416939,
    "long": 19.94522
  },
  {
    "place_name": "metus",
    "lat": 55.4947802,
    "long": 109.1531996
  },
  {
    "place_name": "vitae",
    "lat": 38.58,
    "long": -121.49
  },
  {
    "place_name": "ipsum",
    "lat": 45.38193,
    "long": 121.593799
  },
  {
    "place_name": "metus",
    "lat": 26.830199,
    "long": 116.844405
  },
  {
    "place_name": "dolor",
    "lat": 35.1795543,
    "long": 129.0756416
  },
  {
    "place_name": "massa",
    "lat": -34.5484605,
    "long": -58.5717015
  },
  {
    "place_name": "eget",
    "lat": -1.2834307,
    "long": 29.6904746
  },
  {
    "place_name": "est",
    "lat": -7.3825,
    "long": 108.16
  },
  {
    "place_name": "praesent",
    "lat": 9.9356473,
    "long": -84.0792946
  },
  {
    "place_name": "mauris",
    "lat": 32.7011609,
    "long": -97.3354531
  },
  {
    "place_name": "eget",
    "lat": 36.0190178,
    "long": 129.3434808
  },
  {
    "place_name": "ut",
    "lat": 57.857193,
    "long": 11.91635
  },
  {
    "place_name": "tortor",
    "lat": 33.437877,
    "long": 113.609286
  },
  {
    "place_name": "metus",
    "lat": 31.700896,
    "long": 35.9510312
  },
  {
    "place_name": "in",
    "lat": 29.2979895,
    "long": 48.0510871
  },
  {
    "place_name": "sapien",
    "lat": -7.337137,
    "long": 146.7159362
  },
  {
    "place_name": "sed",
    "lat": 59.2423602,
    "long": 14.4352781
  },
  {
    "place_name": "molestie",
    "lat": 39.0392193,
    "long": 125.7625241
  },
  {
    "place_name": "morbi",
    "lat": 26.4363523,
    "long": 106.5589556
  },
  {
    "place_name": "tincidunt",
    "lat": -32.0355634,
    "long": -52.0918239
  },
  {
    "place_name": "diam",
    "lat": -25.2426589,
    "long": -53.9785591
  },
  {
    "place_name": "lacinia",
    "lat": -26.8193949,
    "long": -65.1435685
  },
  {
    "place_name": "posuere",
    "lat": -7.1684722,
    "long": 107.9833112
  },
  {
    "place_name": "augue",
    "lat": 34.348841,
    "long": 118.993664
  },
  {
    "place_name": "sollicitudin",
    "lat": 44.5043184,
    "long": 20.2873726
  },
  {
    "place_name": "integer",
    "lat": -7.261568,
    "long": 112.749865
  },
  {
    "place_name": "sit",
    "lat": 47.585569,
    "long": 18.3979984
  },
  {
    "place_name": "suscipit",
    "lat": 7.02389,
    "long": 124.10028
  },
  {
    "place_name": "enim",
    "lat": 33.379845,
    "long": 115.569092
  },
  {
    "place_name": "leo",
    "lat": 33.2437603,
    "long": 131.6853045
  },
  {
    "place_name": "turpis",
    "lat": 49.9092319,
    "long": 18.5234252
  },
  {
    "place_name": "neque",
    "lat": 26.5324775,
    "long": 53.9867949
  },
  {
    "place_name": "morbi",
    "lat": 16.2123852,
    "long": 100.4198876
  },
  {
    "place_name": "tempus",
    "lat": 31.340637,
    "long": 119.823308
  },
  {
    "place_name": "lorem",
    "lat": -1.677582,
    "long": -48.9605972
  },
  {
    "place_name": "nullam",
    "lat": 21.857958,
    "long": 111.982232
  },
  {
    "place_name": "pede",
    "lat": 2.941214,
    "long": -73.207468
  },
  {
    "place_name": "eu",
    "lat": 29.339476,
    "long": 105.287612
  },
  {
    "place_name": "montes",
    "lat": 15.4097396,
    "long": 104.9201205
  },
  {
    "place_name": "in",
    "lat": 50.0509609,
    "long": 72.9660737
  },
  {
    "place_name": "vivamus",
    "lat": -7.6966822,
    "long": 110.6129124
  },
  {
    "place_name": "ligula",
    "lat": 22.69569,
    "long": 112.225334
  },
  {
    "place_name": "felis",
    "lat": 13.5920158,
    "long": 122.320801
  },
  {
    "place_name": "libero",
    "lat": 5.081006,
    "long": -73.608052
  },
  {
    "place_name": "elementum",
    "lat": 12.5369765,
    "long": 124.3498568
  },
  {
    "place_name": "dui",
    "lat": 8.8153071,
    "long": 105.0557415
  },
  {
    "place_name": "felis",
    "lat": 14.8744012,
    "long": 120.8130073
  },
  {
    "place_name": "magna",
    "lat": 59.9477092,
    "long": 10.8219787
  },
  {
    "place_name": "mattis",
    "lat": 57.7190929,
    "long": 14.1817062
  },
  {
    "place_name": "nisi",
    "lat": 56.4477313,
    "long": 13.6156546
  },
  {
    "place_name": "vitae",
    "lat": 13.7172042,
    "long": -89.7473837
  },
  {
    "place_name": "eget",
    "lat": 53.948639,
    "long": 46.6995979
  },
  {
    "place_name": "quisque",
    "lat": 2.9344837,
    "long": -75.2809001
  },
  {
    "place_name": "felis",
    "lat": 48.9234517,
    "long": 23.4793196
  },
  {
    "place_name": "platea",
    "lat": 50.2308874,
    "long": 22.3984964
  },
  {
    "place_name": "rhoncus",
    "lat": 38.9550335,
    "long": -9.1331143
  },
  {
    "place_name": "sed",
    "lat": 53.9283144,
    "long": 14.4504845
  },
  {
    "place_name": "vulputate",
    "lat": 30.2771132,
    "long": 72.9979303
  },
  {
    "place_name": "aliquam",
    "lat": 40.020575,
    "long": 116.291322
  },
  {
    "place_name": "magna",
    "lat": 14.5699334,
    "long": 121.0204582
  },
  {
    "place_name": "posuere",
    "lat": 24.9372186,
    "long": 118.6422409
  },
  {
    "place_name": "aenean",
    "lat": 43.4945737,
    "long": 5.8978018
  },
  {
    "place_name": "in",
    "lat": 41.549665,
    "long": -7.3871483
  },
  {
    "place_name": "turpis",
    "lat": -37.7071402,
    "long": 144.9611223
  },
  {
    "place_name": "sit",
    "lat": 9.1505664,
    "long": -11.3913379
  },
  {
    "place_name": "at",
    "lat": 25.152278,
    "long": 104.241546
  },
  {
    "place_name": "egestas",
    "lat": 51.6551687,
    "long": 16.9564844
  },
  {
    "place_name": "sapien",
    "lat": 6.8113706,
    "long": 126.0868349
  },
  {
    "place_name": "diam",
    "lat": -13.07361,
    "long": -74.41194
  },
  {
    "place_name": "molestie",
    "lat": 47.785421,
    "long": -3.2602564
  },
  {
    "place_name": "imperdiet",
    "lat": 44.303454,
    "long": 4.5815725
  },
  {
    "place_name": "penatibus",
    "lat": 46.4064605,
    "long": -0.201305
  },
  {
    "place_name": "pharetra",
    "lat": 12.712478,
    "long": 124.036411
  },
  {
    "place_name": "semper",
    "lat": -20.4993469,
    "long": -43.8613566
  },
  {
    "place_name": "nunc",
    "lat": -1.2468663,
    "long": 110.0926112
  },
  {
    "place_name": "rutrum",
    "lat": 20.6323938,
    "long": -87.0911879
  },
  {
    "place_name": "blandit",
    "lat": 52.63744,
    "long": 41.45968
  },
  {
    "place_name": "id",
    "lat": 40.266667,
    "long": 72.1
  },
  {
    "place_name": "tristique",
    "lat": 43.1283145,
    "long": 5.9294606
  },
  {
    "place_name": "justo",
    "lat": 43.708681,
    "long": 45.2427175
  },
  {
    "place_name": "leo",
    "lat": 40.347979,
    "long": -7.0160004
  },
  {
    "place_name": "suscipit",
    "lat": -6.076643,
    "long": 106.4288088
  },
  {
    "place_name": "pellentesque",
    "lat": 58.4755075,
    "long": 13.8583744
  },
  {
    "place_name": "justo",
    "lat": 20.5800358,
    "long": -75.2435307
  },
  {
    "place_name": "nulla",
    "lat": -11.7714258,
    "long": 19.8901427
  },
  {
    "place_name": "libero",
    "lat": 49.6747467,
    "long": 21.9594799
  },
  {
    "place_name": "habitasse",
    "lat": -6.5092532,
    "long": 106.8974964
  },
  {
    "place_name": "urna",
    "lat": 27.632803,
    "long": 111.793796
  },
  {
    "place_name": "nec",
    "lat": -13.4919595,
    "long": -76.1667807
  },
  {
    "place_name": "aliquet",
    "lat": 0.5948949,
    "long": -77.8281514
  },
  {
    "place_name": "nec",
    "lat": 50.1267067,
    "long": 45.4468585
  },
  {
    "place_name": "odio",
    "lat": 7.679352,
    "long": 7.9266015
  },
  {
    "place_name": "augue",
    "lat": 40.1145846,
    "long": 44.2706023
  },
  {
    "place_name": "justo",
    "lat": 50.6658627,
    "long": 15.0898596
  },
  {
    "place_name": "sapien",
    "lat": 14.8904575,
    "long": 5.2579968
  },
  {
    "place_name": "nulla",
    "lat": 40.446264,
    "long": 115.345484
  },
  {
    "place_name": "donec",
    "lat": 7.2466086,
    "long": 16.4346979
  },
  {
    "place_name": "a",
    "lat": 59.9739683,
    "long": 10.9282159
  },
  {
    "place_name": "convallis",
    "lat": -6.2056665,
    "long": 107.0251946
  },
  {
    "place_name": "potenti",
    "lat": 25.6502709,
    "long": -100.3428618
  },
  {
    "place_name": "porttitor",
    "lat": 28.133945,
    "long": 111.656407
  },
  {
    "place_name": "massa",
    "lat": 40.667433,
    "long": 122.235084
  },
  {
    "place_name": "ante",
    "lat": 41.0787184,
    "long": -7.435408
  },
  {
    "place_name": "in",
    "lat": 2.579401,
    "long": -77.8138553
  },
  {
    "place_name": "in",
    "lat": 1.2730471,
    "long": 124.7851264
  },
  {
    "place_name": "enim",
    "lat": 18.1096868,
    "long": -95.8803869
  },
  {
    "place_name": "phasellus",
    "lat": 59.1866631,
    "long": 17.622548
  },
  {
    "place_name": "arcu",
    "lat": 5.8520355,
    "long": -55.2038278
  },
  {
    "place_name": "sagittis",
    "lat": 37.4092357,
    "long": 57.9276184
  },
  {
    "place_name": "neque",
    "lat": -5.8949347,
    "long": -35.4343604
  },
  {
    "place_name": "sociis",
    "lat": 24.0308651,
    "long": 89.2275131
  },
  {
    "place_name": "integer",
    "lat": -34.4765431,
    "long": -58.7226377
  },
  {
    "place_name": "pede",
    "lat": -6.9520475,
    "long": 108.4795361
  },
  {
    "place_name": "curabitur",
    "lat": 37.9331181,
    "long": 102.6293927
  },
  {
    "place_name": "ac",
    "lat": -8.1659,
    "long": 111.8378
  },
  {
    "place_name": "vitae",
    "lat": 53.1257486,
    "long": -6.0690645
  },
  {
    "place_name": "mauris",
    "lat": -10.5971,
    "long": 121.8889
  },
  {
    "place_name": "nulla",
    "lat": 31.4784522,
    "long": 71.2845323
  },
  {
    "place_name": "ornare",
    "lat": 9.3140186,
    "long": 123.3026369
  },
  {
    "place_name": "proin",
    "lat": 41.8434818,
    "long": 21.1051021
  },
  {
    "place_name": "duis",
    "lat": 57.8814317,
    "long": 43.8050354
  },
  {
    "place_name": "luctus",
    "lat": 48.69682,
    "long": 2.567685
  },
  {
    "place_name": "lectus",
    "lat": 36.69132,
    "long": 68.79093
  },
  {
    "place_name": "turpis",
    "lat": -6.6421188,
    "long": 108.1873407
  },
  {
    "place_name": "nullam",
    "lat": 35.649152,
    "long": 138.5884549
  },
  {
    "place_name": "justo",
    "lat": 56.8530446,
    "long": 41.3756828
  },
  {
    "place_name": "libero",
    "lat": 14.525936,
    "long": -90.761712
  },
  {
    "place_name": "donec",
    "lat": -7.0395,
    "long": 113.69823
  },
  {
    "place_name": "vel",
    "lat": 8.1707969,
    "long": -63.5658573
  },
  {
    "place_name": "a",
    "lat": 12.512997,
    "long": 109.140438
  },
  {
    "place_name": "erat",
    "lat": 19.3972335,
    "long": -99.1933664
  },
  {
    "place_name": "diam",
    "lat": 45.638468,
    "long": 0.129895
  },
  {
    "place_name": "pulvinar",
    "lat": 29.932442,
    "long": 114.36947
  },
  {
    "place_name": "ligula",
    "lat": 32.881263,
    "long": 99.586963
  },
  {
    "place_name": "suspendisse",
    "lat": 32.8872094,
    "long": 13.1913383
  },
  {
    "place_name": "quis",
    "lat": 50.4915831,
    "long": 16.2682843
  },
  {
    "place_name": "nullam",
    "lat": 10.29041,
    "long": -67.6274785
  },
  {
    "place_name": "luctus",
    "lat": 10.1641809,
    "long": 40.6499135
  },
  {
    "place_name": "mauris",
    "lat": 54.7305189,
    "long": 25.2361291
  },
  {
    "place_name": "lorem",
    "lat": 42.1400691,
    "long": 25.5719576
  },
  {
    "place_name": "accumsan",
    "lat": -33.4891416,
    "long": 151.3248343
  },
  {
    "place_name": "amet",
    "lat": 41.5327252,
    "long": 20.4232296
  },
  {
    "place_name": "sapien",
    "lat": 34.0319016,
    "long": 131.0103712
  },
  {
    "place_name": "ipsum",
    "lat": 31.220367,
    "long": 121.424624
  },
  {
    "place_name": "donec",
    "lat": 40.3777496,
    "long": 69.2490136
  },
  {
    "place_name": "dictumst",
    "lat": 53.2582868,
    "long": -9.1097137
  },
  {
    "place_name": "congue",
    "lat": 44.7639581,
    "long": 16.6646119
  },
  {
    "place_name": "consequat",
    "lat": 37.4852899,
    "long": -2.2959788
  },
  {
    "place_name": "proin",
    "lat": 47.2990712,
    "long": -1.5086685
  },
  {
    "place_name": "volutpat",
    "lat": 29.04797,
    "long": 105.944081
  },
  {
    "place_name": "interdum",
    "lat": -38.977251,
    "long": -67.826868
  },
  {
    "place_name": "sit",
    "lat": 31.121239,
    "long": 121.370354
  },
  {
    "place_name": "dapibus",
    "lat": 36.9923139,
    "long": -122.0581762
  },
  {
    "place_name": "leo",
    "lat": -6.7061169,
    "long": 111.4320603
  },
  {
    "place_name": "dapibus",
    "lat": 30.3859766,
    "long": -91.0759758
  },
  {
    "place_name": "quis",
    "lat": 54.8095591,
    "long": 38.2516419
  },
  {
    "place_name": "semper",
    "lat": 45.5767359,
    "long": -122.6386722
  },
  {
    "place_name": "ac",
    "lat": 41.2699428,
    "long": -8.2236098
  },
  {
    "place_name": "diam",
    "lat": 47.25,
    "long": -122.44
  },
  {
    "place_name": "nulla",
    "lat": 38.58,
    "long": -121.49
  },
  {
    "place_name": "condimentum",
    "lat": 38.997932,
    "long": 140.02088
  },
  {
    "place_name": "consectetuer",
    "lat": -8.1448805,
    "long": -79.0517936
  },
  {
    "place_name": "at",
    "lat": -6.9604,
    "long": 111.6157
  },
  {
    "place_name": "augue",
    "lat": 53.45,
    "long": 62.9833329
  },
  {
    "place_name": "sagittis",
    "lat": -22.3463487,
    "long": -48.7862736
  },
  {
    "place_name": "ante",
    "lat": 35.7797381,
    "long": -80.7087609
  },
  {
    "place_name": "molestie",
    "lat": 31.2303904,
    "long": 121.4737021
  },
  {
    "place_name": "quam",
    "lat": 21.3772424,
    "long": 110.2485736
  },
  {
    "place_name": "et",
    "lat": 47.4936583,
    "long": 21.66245
  },
  {
    "place_name": "sem",
    "lat": 8.8872371,
    "long": -11.16032
  },
  {
    "place_name": "at",
    "lat": -6.9970846,
    "long": -76.1660561
  },
  {
    "place_name": "pede",
    "lat": 46.8179207,
    "long": 0.5465548
  },
  {
    "place_name": "et",
    "lat": 18.1145292,
    "long": 121.4023587
  },
  {
    "place_name": "turpis",
    "lat": 59.8292954,
    "long": 16.5457017
  },
  {
    "place_name": "phasellus",
    "lat": 47.4978346,
    "long": 7.5961692
  },
  {
    "place_name": "magna",
    "lat": 41.5752196,
    "long": 26.2288126
  },
  {
    "place_name": "nec",
    "lat": 39.579208,
    "long": 109.708633
  },
  {
    "place_name": "consequat",
    "lat": 35.498159,
    "long": 106.330646
  },
  {
    "place_name": "dapibus",
    "lat": 50.24342,
    "long": -63.60264
  },
  {
    "place_name": "nulla",
    "lat": 22.654032,
    "long": 110.18122
  },
  {
    "place_name": "et",
    "lat": 54.1308809,
    "long": 45.2613033
  },
  {
    "place_name": "in",
    "lat": -30.3845133,
    "long": -56.4488086
  },
  {
    "place_name": "odio",
    "lat": 33.6571965,
    "long": 135.9491482
  },
  {
    "place_name": "et",
    "lat": 59.2889777,
    "long": 18.3689021
  },
  {
    "place_name": "accumsan",
    "lat": -3.6062721,
    "long": 128.2480302
  },
  {
    "place_name": "nunc",
    "lat": 11.8816553,
    "long": -15.6177942
  },
  {
    "place_name": "sagittis",
    "lat": 40.1578309,
    "long": 44.3793997
  },
  {
    "place_name": "est",
    "lat": 54.16967,
    "long": 21.13909
  },
  {
    "place_name": "porta",
    "lat": 18.1436128,
    "long": -94.4452233
  },
  {
    "place_name": "a",
    "lat": 49.4931107,
    "long": 36.8206064
  },
  {
    "place_name": "pulvinar",
    "lat": 59.9028865,
    "long": 30.3175834
  },
  {
    "place_name": "donec",
    "lat": 35.5445563,
    "long": 128.4922143
  },
  {
    "place_name": "orci",
    "lat": 55.86328,
    "long": 37.621698
  },
  {
    "place_name": "urna",
    "lat": -8.6678,
    "long": 122.0326
  },
  {
    "place_name": "in",
    "lat": 23.09964,
    "long": 113.8131
  },
  {
    "place_name": "non",
    "lat": 59.1779971,
    "long": 18.1593939
  },
  {
    "place_name": "id",
    "lat": -13.6824359,
    "long": -71.6228355
  },
  {
    "place_name": "neque",
    "lat": 49.9731106,
    "long": 32.9873888
  },
  {
    "place_name": "ut",
    "lat": -7.305958,
    "long": 112.8135304
  },
  {
    "place_name": "tempor",
    "lat": 48.9706758,
    "long": 89.9678382
  },
  {
    "place_name": "tempor",
    "lat": 7.7601925,
    "long": 125.0095225
  },
  {
    "place_name": "lacinia",
    "lat": 33.612843,
    "long": 113.667436
  },
  {
    "place_name": "eu",
    "lat": 6.9894019,
    "long": 79.8933077
  },
  {
    "place_name": "scelerisque",
    "lat": -21.5679739,
    "long": -45.7142063
  },
  {
    "place_name": "est",
    "lat": 3.7953482,
    "long": 10.1367166
  },
  {
    "place_name": "dui",
    "lat": 49.1112563,
    "long": 6.7220343
  },
  {
    "place_name": "in",
    "lat": -8.1968847,
    "long": 112.5304693
  },
  {
    "place_name": "interdum",
    "lat": 9.6037331,
    "long": 124.1518808
  },
  {
    "place_name": "malesuada",
    "lat": 35.9329039,
    "long": 10.0219822
  },
  {
    "place_name": "pede",
    "lat": -0.2142002,
    "long": -78.4989722
  },
  {
    "place_name": "sit",
    "lat": 11.5610083,
    "long": 8.581717
  },
  {
    "place_name": "ligula",
    "lat": 11.366667,
    "long": 7.633333
  },
  {
    "place_name": "nulla",
    "lat": 7.9122744,
    "long": 98.3459726
  },
  {
    "place_name": "praesent",
    "lat": 30.603546,
    "long": 121.095594
  },
  {
    "place_name": "lorem",
    "lat": 32.5009216,
    "long": -6.6905458
  },
  {
    "place_name": "tortor",
    "lat": 14.7673872,
    "long": -16.685136
  },
  {
    "place_name": "pede",
    "lat": -28.8953831,
    "long": 27.9073244
  },
  {
    "place_name": "erat",
    "lat": 53.1891447,
    "long": 158.3871557
  },
  {
    "place_name": "id",
    "lat": 60.9358323,
    "long": 25.9350435
  },
  {
    "place_name": "aenean",
    "lat": 46.3499163,
    "long": 15.1107601
  },
  {
    "place_name": "libero",
    "lat": 49.380268,
    "long": -82.400129
  },
  {
    "place_name": "metus",
    "lat": 37.029718,
    "long": 116.328206
  },
  {
    "place_name": "tristique",
    "lat": 38.8248475,
    "long": -9.2968812
  },
  {
    "place_name": "morbi",
    "lat": 31.2266233,
    "long": 121.4618377
  },
  {
    "place_name": "ligula",
    "lat": 18.855626,
    "long": -98.189463
  },
  {
    "place_name": "interdum",
    "lat": 32.86593,
    "long": 118.516053
  },
  {
    "place_name": "nam",
    "lat": 31.0604911,
    "long": -6.555654
  },
  {
    "place_name": "ullamcorper",
    "lat": 14.6746056,
    "long": 102.5365942
  },
  {
    "place_name": "quam",
    "lat": -10.31,
    "long": 123.69983
  },
  {
    "place_name": "posuere",
    "lat": 39.128502,
    "long": 113.139828
  },
  {
    "place_name": "ipsum",
    "lat": 66.3887667,
    "long": 23.3361439
  },
  {
    "place_name": "consequat",
    "lat": -11.7283752,
    "long": -49.0686083
  },
  {
    "place_name": "cursus",
    "lat": 51.91673,
    "long": 17.2409601
  },
  {
    "place_name": "pellentesque",
    "lat": 48.8818933,
    "long": 17.2802878
  },
  {
    "place_name": "justo",
    "lat": 31.192206,
    "long": 117.472253
  },
  {
    "place_name": "dui",
    "lat": 43.5066525,
    "long": 23.8635696
  },
  {
    "place_name": "mauris",
    "lat": 39.993178,
    "long": 116.468427
  },
  {
    "place_name": "neque",
    "lat": 56.2621893,
    "long": 34.3028279
  },
  {
    "place_name": "scelerisque",
    "lat": 22.3032923,
    "long": 105.876004
  },
  {
    "place_name": "vel",
    "lat": 50.7193517,
    "long": 15.1765093
  },
  {
    "place_name": "posuere",
    "lat": -7.9594608,
    "long": 112.637271
  },
  {
    "place_name": "metus",
    "lat": 50.3396453,
    "long": 13.4748408
  },
  {
    "place_name": "massa",
    "lat": -22.7561319,
    "long": -43.4607419
  },
  {
    "place_name": "non",
    "lat": 57.5002589,
    "long": 12.7091837
  },
  {
    "place_name": "duis",
    "lat": 22.627308,
    "long": 88.433942
  },
  {
    "place_name": "vel",
    "lat": 1.547829,
    "long": 110.341564
  },
  {
    "place_name": "nam",
    "lat": 47.660528,
    "long": 33.7205403
  },
  {
    "place_name": "aliquet",
    "lat": 53.2771781,
    "long": -109.9850454
  },
  {
    "place_name": "posuere",
    "lat": 13.789644,
    "long": 100.5199643
  },
  {
    "place_name": "etiam",
    "lat": 22.555259,
    "long": 113.884019
  },
  {
    "place_name": "orci",
    "lat": 14.22584,
    "long": -86.7139704
  },
  {
    "place_name": "donec",
    "lat": 8.956049,
    "long": 125.596794
  },
  {
    "place_name": "mollis",
    "lat": 48.7803815,
    "long": 2.4549884
  },
  {
    "place_name": "rutrum",
    "lat": 35.444497,
    "long": 106.73609
  },
  {
    "place_name": "aliquam",
    "lat": 8.4538411,
    "long": 39.2803991
  },
  {
    "place_name": "felis",
    "lat": 27.356747,
    "long": 110.944708
  },
  {
    "place_name": "sed",
    "lat": -27.5948698,
    "long": -48.5482195
  },
  {
    "place_name": "justo",
    "lat": 14.6279122,
    "long": 121.0034428
  },
  {
    "place_name": "elit",
    "lat": 33.6450129,
    "long": 133.4789243
  },
  {
    "place_name": "sapien",
    "lat": -22.9524249,
    "long": -47.3139886
  },
  {
    "place_name": "eu",
    "lat": 57.68356,
    "long": 11.8861644
  },
  {
    "place_name": "vivamus",
    "lat": 29.9640473,
    "long": -90.1999318
  },
  {
    "place_name": "cras",
    "lat": 28.91667,
    "long": 30.85
  },
  {
    "place_name": "dolor",
    "lat": 45.478943,
    "long": 42.1414011
  },
  {
    "place_name": "dictumst",
    "lat": 15.0447225,
    "long": -89.5826811
  },
  {
    "place_name": "gravida",
    "lat": 49.6005751,
    "long": 6.3670151
  },
  {
    "place_name": "vestibulum",
    "lat": 23.634675,
    "long": 112.44069
  },
  {
    "place_name": "leo",
    "lat": 32.2048631,
    "long": 49.4453295
  },
  {
    "place_name": "pharetra",
    "lat": 49.2210669,
    "long": 17.5873433
  },
  {
    "place_name": "accumsan",
    "lat": -7.6589782,
    "long": 110.5394227
  },
  {
    "place_name": "tincidunt",
    "lat": -2.3286839,
    "long": -79.4056784
  },
  {
    "place_name": "lacinia",
    "lat": 42.2214597,
    "long": 43.9644051
  },
  {
    "place_name": "porta",
    "lat": -15.6903468,
    "long": -39.1127352
  },
  {
    "place_name": "aliquam",
    "lat": 38.135288,
    "long": 114.397004
  },
  {
    "place_name": "justo",
    "lat": 41.565627,
    "long": 120.453743
  },
  {
    "place_name": "imperdiet",
    "lat": 55.4738346,
    "long": 13.0125224
  },
  {
    "place_name": "et",
    "lat": 50.6514963,
    "long": 21.2602765
  },
  {
    "place_name": "auctor",
    "lat": 51.6878774,
    "long": 23.1996378
  },
  {
    "place_name": "metus",
    "lat": 60.8110019,
    "long": 21.4457309
  },
  {
    "place_name": "tempor",
    "lat": 42.25785,
    "long": 118.886931
  },
  {
    "place_name": "justo",
    "lat": 19.3803931,
    "long": -99.1476908
  },
  {
    "place_name": "potenti",
    "lat": -8.1067604,
    "long": 111.8240676
  },
  {
    "place_name": "luctus",
    "lat": 51.976466,
    "long": 21.215337
  },
  {
    "place_name": "id",
    "lat": 45.2881808,
    "long": 20.9411779
  },
  {
    "place_name": "leo",
    "lat": 52.4262274,
    "long": 17.4890829
  },
  {
    "place_name": "quisque",
    "lat": 53.3806398,
    "long": -6.5028415
  },
  {
    "place_name": "nisl",
    "lat": 42.5100804,
    "long": 1.5387862
  },
  {
    "place_name": "in",
    "lat": 14.6874444,
    "long": 120.9638841
  },
  {
    "place_name": "nibh",
    "lat": -6.4178271,
    "long": 106.0904721
  },
  {
    "place_name": "vel",
    "lat": 32.724185,
    "long": 120.133762
  },
  {
    "place_name": "tincidunt",
    "lat": 40.5566629,
    "long": -8.5821839
  },
  {
    "place_name": "vulputate",
    "lat": -24.4748345,
    "long": -49.8956943
  },
  {
    "place_name": "luctus",
    "lat": -9.8446717,
    "long": 124.2810541
  },
  {
    "place_name": "nunc",
    "lat": 29.985295,
    "long": 122.207215
  },
  {
    "place_name": "posuere",
    "lat": -3.7580937,
    "long": 102.7942473
  },
  {
    "place_name": "orci",
    "lat": 14.1005099,
    "long": -1.6226538
  },
  {
    "place_name": "leo",
    "lat": 49.7002226,
    "long": 5.9670927
  },
  {
    "place_name": "in",
    "lat": 59.330173,
    "long": 18.0551861
  },
  {
    "place_name": "quisque",
    "lat": 49.1055022,
    "long": 28.1576316
  },
  {
    "place_name": "magnis",
    "lat": 36.8277257,
    "long": 22.7760837
  },
  {
    "place_name": "molestie",
    "lat": 49.617087,
    "long": 19.353513
  },
  {
    "place_name": "ut",
    "lat": 12.6030181,
    "long": 37.4521319
  },
  {
    "place_name": "odio",
    "lat": 24.348178,
    "long": 113.151358
  },
  {
    "place_name": "nam",
    "lat": 18.158235,
    "long": 120.644135
  },
  {
    "place_name": "lacus",
    "lat": 15.7967076,
    "long": 121.4816411
  },
  {
    "place_name": "nulla",
    "lat": 14.5659717,
    "long": 121.0108932
  },
  {
    "place_name": "et",
    "lat": 5.9354963,
    "long": -4.2230836
  },
  {
    "place_name": "in",
    "lat": 22.517585,
    "long": 113.39277
  },
  {
    "place_name": "duis",
    "lat": 38.013999,
    "long": 24.4198995
  },
  {
    "place_name": "at",
    "lat": 40.4938437,
    "long": -8.4743511
  },
  {
    "place_name": "ipsum",
    "lat": 53.7902634,
    "long": -6.2429997
  },
  {
    "place_name": "nisi",
    "lat": 50.6157447,
    "long": 34.9855215
  },
  {
    "place_name": "accumsan",
    "lat": -3.1367979,
    "long": 112.6913764
  },
  {
    "place_name": "sagittis",
    "lat": 49.297491,
    "long": 125.217735
  },
  {
    "place_name": "velit",
    "lat": 10.379923,
    "long": -74.881979
  },
  {
    "place_name": "quam",
    "lat": 50.4271996,
    "long": 3.989666
  },
  {
    "place_name": "id",
    "lat": 21.459233,
    "long": 101.564635
  },
  {
    "place_name": "ultrices",
    "lat": 6.8322014,
    "long": 3.6319131
  },
  {
    "place_name": "accumsan",
    "lat": 11.0537,
    "long": 124.0385
  },
  {
    "place_name": "libero",
    "lat": -2.6077503,
    "long": 29.7368128
  },
  {
    "place_name": "montes",
    "lat": -23.5388072,
    "long": -47.4563943
  },
  {
    "place_name": "posuere",
    "lat": 29.482508,
    "long": 116.726929
  },
  {
    "place_name": "mattis",
    "lat": 50.2242211,
    "long": 18.7343606
  },
  {
    "place_name": "id",
    "lat": -22.602558,
    "long": -43.9055155
  },
  {
    "place_name": "odio",
    "lat": -8.2439594,
    "long": 112.5125893
  },
  {
    "place_name": "justo",
    "lat": -26.4743278,
    "long": -49.0023
  },
  {
    "place_name": "proin",
    "lat": 47.573689,
    "long": 34.8688115
  },
  {
    "place_name": "interdum",
    "lat": 5.87568,
    "long": 121.29146
  },
  {
    "place_name": "ut",
    "lat": 48.7764948,
    "long": 17.0214389
  },
  {
    "place_name": "duis",
    "lat": 37.7852875,
    "long": 127.0458453
  },
  {
    "place_name": "donec",
    "lat": 48.2211075,
    "long": 26.2712988
  },
  {
    "place_name": "praesent",
    "lat": 40.1893575,
    "long": -8.8601025
  },
  {
    "place_name": "curabitur",
    "lat": 40.2221306,
    "long": -8.0122102
  },
  {
    "place_name": "nibh",
    "lat": 31.598422,
    "long": 35.026375
  },
  {
    "place_name": "non",
    "lat": 50.6576392,
    "long": 13.7140673
  },
  {
    "place_name": "odio",
    "lat": 24.745135,
    "long": 100.824707
  },
  {
    "place_name": "interdum",
    "lat": 46.4270739,
    "long": 16.5473979
  },
  {
    "place_name": "ac",
    "lat": -7.6263425,
    "long": 39.065866
  },
  {
    "place_name": "nisi",
    "lat": 13.78694,
    "long": 45.2304
  },
  {
    "place_name": "viverra",
    "lat": 41.8760133,
    "long": 72.9401509
  },
  {
    "place_name": "amet",
    "lat": -8.784797,
    "long": 115.193565
  },
  {
    "place_name": "in",
    "lat": -10.1535,
    "long": 120.6278
  },
  {
    "place_name": "id",
    "lat": 59.3343961,
    "long": 18.0257303
  },
  {
    "place_name": "vestibulum",
    "lat": 41.9121057,
    "long": 22.4068944
  },
  {
    "place_name": "a",
    "lat": 51.6553959,
    "long": 35.2572553
  },
  {
    "place_name": "ante",
    "lat": 56.036667,
    "long": 39.9203466
  },
  {
    "place_name": "non",
    "lat": 25.489383,
    "long": 111.160851
  },
  {
    "place_name": "imperdiet",
    "lat": 21.857958,
    "long": 111.982232
  },
  {
    "place_name": "ac",
    "lat": 55.6854725,
    "long": 12.5666087
  },
  {
    "place_name": "consequat",
    "lat": 13.1267875,
    "long": -87.0361917
  },
  {
    "place_name": "turpis",
    "lat": 59.5721558,
    "long": 17.5208372
  },
  {
    "place_name": "libero",
    "lat": 24.562945,
    "long": 118.26435
  },
  {
    "place_name": "odio",
    "lat": 41.6188726,
    "long": -8.3575438
  },
  {
    "place_name": "elementum",
    "lat": 12.7684177,
    "long": -87.1310668
  },
  {
    "place_name": "lacus",
    "lat": 38.4784282,
    "long": -9.1007778
  },
  {
    "place_name": "lectus",
    "lat": 27.578926,
    "long": 110.040315
  },
  {
    "place_name": "nisl",
    "lat": 32.023273,
    "long": 108.400024
  },
  {
    "place_name": "porttitor",
    "lat": 21.664044,
    "long": 110.639569
  },
  {
    "place_name": "ornare",
    "lat": 38.7496144,
    "long": 140.3012172
  },
  {
    "place_name": "velit",
    "lat": 42.9946912,
    "long": -82.394
  },
  {
    "place_name": "nulla",
    "lat": 23.354091,
    "long": 116.681972
  },
  {
    "place_name": "nonummy",
    "lat": 37.253622,
    "long": 117.999934
  },
  {
    "place_name": "sem",
    "lat": 33.5583385,
    "long": 36.3660597
  },
  {
    "place_name": "nonummy",
    "lat": -6.2284889,
    "long": 106.9602906
  },
  {
    "place_name": "nulla",
    "lat": 45.697904,
    "long": 0.964671
  },
  {
    "place_name": "donec",
    "lat": 29.6464527,
    "long": -95.4935119
  },
  {
    "place_name": "sapien",
    "lat": 49.9747505,
    "long": 16.40677
  },
  {
    "place_name": "sapien",
    "lat": 52.3147542,
    "long": 22.8893801
  },
  {
    "place_name": "orci",
    "lat": 39.6507816,
    "long": -8.5452616
  },
  {
    "place_name": "vulputate",
    "lat": 35.2188655,
    "long": -80.8108888
  },
  {
    "place_name": "tellus",
    "lat": 39.6920939,
    "long": -8.4272356
  },
  {
    "place_name": "purus",
    "lat": 49.7053582,
    "long": 18.6134596
  },
  {
    "place_name": "aliquam",
    "lat": 15.399082,
    "long": 119.9327646
  },
  {
    "place_name": "felis",
    "lat": 19.3957419,
    "long": -97.2826539
  },
  {
    "place_name": "posuere",
    "lat": 36.1964847,
    "long": -95.8459341
  },
  {
    "place_name": "interdum",
    "lat": 37.39,
    "long": -121.89
  },
  {
    "place_name": "luctus",
    "lat": 45.8299686,
    "long": -64.2092372
  },
  {
    "place_name": "in",
    "lat": 47.9560267,
    "long": 39.7419209
  },
  {
    "place_name": "curae",
    "lat": -21.2922593,
    "long": -50.3407923
  },
  {
    "place_name": "egestas",
    "lat": 23.69589,
    "long": 113.645048
  },
  {
    "place_name": "in",
    "lat": 54.914389,
    "long": 85.646652
  },
  {
    "place_name": "lacus",
    "lat": -7.8176291,
    "long": -34.9268225
  },
  {
    "place_name": "quis",
    "lat": 6.1090652,
    "long": 102.133622
  },
  {
    "place_name": "amet",
    "lat": -10.1904527,
    "long": 123.6007574
  },
  {
    "place_name": "eget",
    "lat": 48.9933836,
    "long": 16.6802413
  },
  {
    "place_name": "porta",
    "lat": 51.876873,
    "long": -8.5171384
  },
  {
    "place_name": "orci",
    "lat": 40.4520266,
    "long": 49.9324113
  },
  {
    "place_name": "elementum",
    "lat": 56.9938866,
    "long": 86.182232
  },
  {
    "place_name": "dui",
    "lat": 25.822349,
    "long": 107.322323
  },
  {
    "place_name": "massa",
    "lat": 48.7282419,
    "long": 2.3694452
  },
  {
    "place_name": "convallis",
    "lat": 36.478493,
    "long": 119.218978
  },
  {
    "place_name": "sem",
    "lat": 48.8333236,
    "long": 2.4923085
  },
  {
    "place_name": "mauris",
    "lat": 42.0678894,
    "long": -8.5194214
  },
  {
    "place_name": "augue",
    "lat": -8.5705,
    "long": 116.498
  },
  {
    "place_name": "ac",
    "lat": 44.81,
    "long": -93.92
  },
  {
    "place_name": "posuere",
    "lat": -51.57321,
    "long": -72.3508
  },
  {
    "place_name": "erat",
    "lat": 48.8096645,
    "long": 9.2415192
  },
  {
    "place_name": "dignissim",
    "lat": 44.34072,
    "long": 129.4828511
  },
  {
    "place_name": "viverra",
    "lat": 17.4792157,
    "long": 121.6180515
  },
  {
    "place_name": "vestibulum",
    "lat": 8.0388983,
    "long": -72.2541441
  },
  {
    "place_name": "natoque",
    "lat": 59.2524333,
    "long": 18.0761199
  },
  {
    "place_name": "ante",
    "lat": -6.1583904,
    "long": 106.4288088
  },
  {
    "place_name": "vestibulum",
    "lat": 49.8461722,
    "long": 29.0542223
  },
  {
    "place_name": "et",
    "lat": -34.6824081,
    "long": -58.5146668
  },
  {
    "place_name": "lacus",
    "lat": 36.569805,
    "long": 4.448361
  },
  {
    "place_name": "sit",
    "lat": -8.7517433,
    "long": 122.0183914
  },
  {
    "place_name": "luctus",
    "lat": -14.7929927,
    "long": -39.0459316
  },
  {
    "place_name": "turpis",
    "lat": 41.7156359,
    "long": 20.9777418
  },
  {
    "place_name": "praesent",
    "lat": 14.9192781,
    "long": 100.2905604
  },
  {
    "place_name": "sagittis",
    "lat": 42.83528,
    "long": 22.65167
  },
  {
    "place_name": "placerat",
    "lat": 6.0343516,
    "long": 124.5217429
  },
  {
    "place_name": "nec",
    "lat": 48.8048649,
    "long": 2.1203554
  },
  {
    "place_name": "felis",
    "lat": -25.4809333,
    "long": -64.9751483
  },
  {
    "place_name": "posuere",
    "lat": 40.1361855,
    "long": 44.2441818
  },
  {
    "place_name": "in",
    "lat": -22.075317,
    "long": -48.7417603
  },
  {
    "place_name": "sem",
    "lat": 30.677233,
    "long": 121.015142
  },
  {
    "place_name": "duis",
    "lat": 25.6387878,
    "long": -80.3073826
  },
  {
    "place_name": "consequat",
    "lat": -8.7377882,
    "long": 122.2171695
  },
  {
    "place_name": "mi",
    "lat": -26.7109399,
    "long": 27.10086
  },
  {
    "place_name": "venenatis",
    "lat": 59.6194065,
    "long": 16.5805191
  },
  {
    "place_name": "sed",
    "lat": 34.4911201,
    "long": 62.6031004
  },
  {
    "place_name": "cursus",
    "lat": 52.8818616,
    "long": 17.5860395
  },
  {
    "place_name": "auctor",
    "lat": 53.66583,
    "long": 91.53639
  },
  {
    "place_name": "platea",
    "lat": 46.635417,
    "long": 32.616867
  },
  {
    "place_name": "eros",
    "lat": 45.3481651,
    "long": 14.5032137
  },
  {
    "place_name": "nam",
    "lat": 9.029518,
    "long": 1.4168974
  },
  {
    "place_name": "aenean",
    "lat": 15.82496,
    "long": 44.06204
  },
  {
    "place_name": "natoque",
    "lat": 49.6484264,
    "long": 29.3163202
  },
  {
    "place_name": "ornare",
    "lat": 23.7247599,
    "long": 108.8076195
  },
  {
    "place_name": "ante",
    "lat": 47.68065,
    "long": -68.8781
  },
  {
    "place_name": "sed",
    "lat": 3.1523104,
    "long": 101.7178316
  },
  {
    "place_name": "eget",
    "lat": 51.1644956,
    "long": 18.2903712
  },
  {
    "place_name": "sed",
    "lat": -8.4480167,
    "long": 114.3103718
  },
  {
    "place_name": "interdum",
    "lat": 57.0936018,
    "long": 24.5424341
  },
  {
    "place_name": "quisque",
    "lat": 59.3178128,
    "long": 18.0285502
  },
  {
    "place_name": "luctus",
    "lat": 50.3768235,
    "long": 35.3859026
  },
  {
    "place_name": "morbi",
    "lat": 34.540852,
    "long": 109.44096
  },
  {
    "place_name": "bibendum",
    "lat": -5.3629365,
    "long": 39.6526462
  },
  {
    "place_name": "porttitor",
    "lat": 40.24739,
    "long": 44.53511
  },
  {
    "place_name": "duis",
    "lat": -4.8149897,
    "long": -38.1054495
  },
  {
    "place_name": "lacus",
    "lat": 48.4621258,
    "long": 7.4888434
  },
  {
    "place_name": "lorem",
    "lat": 9.8411782,
    "long": 123.9121342
  },
  {
    "place_name": "sed",
    "lat": 31.04808,
    "long": 121.749495
  },
  {
    "place_name": "non",
    "lat": 39.5001721,
    "long": 22.8859196
  },
  {
    "place_name": "id",
    "lat": 35.30385,
    "long": 113.875245
  },
  {
    "place_name": "faucibus",
    "lat": -7.811056,
    "long": 108.438797
  },
  {
    "place_name": "ut",
    "lat": 24.8051928,
    "long": 125.2789544
  },
  {
    "place_name": "gravida",
    "lat": 49.0426,
    "long": 2.087826
  },
  {
    "place_name": "sed",
    "lat": 32.3325599,
    "long": 35.751742
  },
  {
    "place_name": "turpis",
    "lat": 48.695223,
    "long": 2.190167
  },
  {
    "place_name": "et",
    "lat": 24.960385,
    "long": 118.386279
  },
  {
    "place_name": "quis",
    "lat": 41.782855,
    "long": -8.5011003
  },
  {
    "place_name": "curabitur",
    "lat": -2.0978271,
    "long": 113.7989815
  },
  {
    "place_name": "quisque",
    "lat": 19.4344475,
    "long": -99.1532952
  },
  {
    "place_name": "duis",
    "lat": 56.4768137,
    "long": 36.5752249
  },
  {
    "place_name": "nunc",
    "lat": 22.492431,
    "long": 111.075519
  },
  {
    "place_name": "luctus",
    "lat": 31.491169,
    "long": 120.31191
  },
  {
    "place_name": "justo",
    "lat": -7.7403739,
    "long": 110.0330554
  },
  {
    "place_name": "vel",
    "lat": 45.5632781,
    "long": 13.769491
  },
  {
    "place_name": "sit",
    "lat": 12.4894021,
    "long": -13.3067562
  },
  {
    "place_name": "at",
    "lat": 14.8548805,
    "long": -91.3582385
  },
  {
    "place_name": "diam",
    "lat": 29.3508986,
    "long": 47.9688359
  },
  {
    "place_name": "lectus",
    "lat": 23.3794116,
    "long": 104.2268717
  },
  {
    "place_name": "amet",
    "lat": 33.45,
    "long": -111.97
  },
  {
    "place_name": "et",
    "lat": -38.9568843,
    "long": -68.1247915
  },
  {
    "place_name": "ultricies",
    "lat": -4.8371532,
    "long": -37.7662816
  },
  {
    "place_name": "non",
    "lat": -23.4595396,
    "long": -56.7383988
  },
  {
    "place_name": "erat",
    "lat": 40.38944,
    "long": 125.04667
  },
  {
    "place_name": "dolor",
    "lat": 52.3668372,
    "long": 4.8902879
  },
  {
    "place_name": "ultrices",
    "lat": -29.8524975,
    "long": -51.1845782
  },
  {
    "place_name": "erat",
    "lat": 57.7385277,
    "long": 12.0633439
  },
  {
    "place_name": "felis",
    "lat": 29.552115,
    "long": 103.765678
  },
  {
    "place_name": "ante",
    "lat": 22.9353419,
    "long": 113.6587617
  },
  {
    "place_name": "sed",
    "lat": 39.76624,
    "long": 44.8087498
  },
  {
    "place_name": "in",
    "lat": 58.4710363,
    "long": 16.3502006
  },
  {
    "place_name": "commodo",
    "lat": 24.7258954,
    "long": 67.9341476
  },
  {
    "place_name": "vestibulum",
    "lat": 57.8374522,
    "long": 56.2706202
  },
  {
    "place_name": "enim",
    "lat": 41.1575552,
    "long": -8.2259125
  },
  {
    "place_name": "donec",
    "lat": -8.7597358,
    "long": 120.9905
  },
  {
    "place_name": "sem",
    "lat": 60.3802969,
    "long": 23.9618656
  },
  {
    "place_name": "pulvinar",
    "lat": 54.7305189,
    "long": 25.2361291
  },
  {
    "place_name": "cum",
    "lat": 16.9112786,
    "long": 120.5714754
  },
  {
    "place_name": "morbi",
    "lat": -45.8802629,
    "long": -67.5305258
  },
  {
    "place_name": "id",
    "lat": -7.7623521,
    "long": 112.9848168
  },
  {
    "place_name": "pellentesque",
    "lat": 43.2587403,
    "long": 17.8880075
  },
  {
    "place_name": "morbi",
    "lat": -7.0386444,
    "long": 107.9692467
  },
  {
    "place_name": "mollis",
    "lat": 26.908404,
    "long": 100.218695
  },
  {
    "place_name": "curabitur",
    "lat": 28.856082,
    "long": 93.388853
  },
  {
    "place_name": "a",
    "lat": 44.351935,
    "long": -87.8445954
  },
  {
    "place_name": "curae",
    "lat": 35.9787718,
    "long": -84.1329595
  },
  {
    "place_name": "lobortis",
    "lat": 18.1226843,
    "long": -94.1558553
  },
  {
    "place_name": "nunc",
    "lat": 37.0279431,
    "long": -76.3116235
  },
  {
    "place_name": "mi",
    "lat": 5.9592535,
    "long": 6.8485009
  },
  {
    "place_name": "est",
    "lat": -7.2269461,
    "long": 12.8687414
  },
  {
    "place_name": "vestibulum",
    "lat": -7.026967,
    "long": -37.2776539
  },
  {
    "place_name": "arcu",
    "lat": 30.572815,
    "long": 104.066801
  },
  {
    "place_name": "eu",
    "lat": 2.2166992,
    "long": 102.2039671
  },
  {
    "place_name": "sed",
    "lat": 37.6708024,
    "long": 138.9539609
  },
  {
    "place_name": "venenatis",
    "lat": -6.0776348,
    "long": 105.8936224
  },
  {
    "place_name": "sapien",
    "lat": 29.606703,
    "long": 106.574271
  },
  {
    "place_name": "non",
    "lat": 39.672791,
    "long": 113.732809
  },
  {
    "place_name": "eu",
    "lat": -8.3225345,
    "long": 121.7081454
  },
  {
    "place_name": "turpis",
    "lat": 32.55492,
    "long": 73.2122
  },
  {
    "place_name": "mattis",
    "lat": 32.890704,
    "long": 35.40461
  },
  {
    "place_name": "elementum",
    "lat": 41.8632851,
    "long": 20.9095433
  },
  {
    "place_name": "vel",
    "lat": 42.7997781,
    "long": 47.1321204
  },
  {
    "place_name": "nulla",
    "lat": 51.7976037,
    "long": 19.4547287
  },
  {
    "place_name": "quam",
    "lat": 33.120053,
    "long": 117.939854
  },
  {
    "place_name": "tempus",
    "lat": 55.4109698,
    "long": 78.2605492
  },
  {
    "place_name": "risus",
    "lat": 23.012915,
    "long": 104.394157
  },
  {
    "place_name": "ipsum",
    "lat": -7.4461263,
    "long": 109.2207098
  },
  {
    "place_name": "elit",
    "lat": -22.4803601,
    "long": -46.633882
  },
  {
    "place_name": "lectus",
    "lat": 49.9354529,
    "long": 18.9773045
  },
  {
    "place_name": "sodales",
    "lat": 14.372734,
    "long": -88.2461183
  },
  {
    "place_name": "elementum",
    "lat": -22.7186089,
    "long": -42.6279835
  },
  {
    "place_name": "nulla",
    "lat": 36.689919,
    "long": 118.4807442
  },
  {
    "place_name": "rutrum",
    "lat": 1.3573565,
    "long": 103.8832261
  },
  {
    "place_name": "quis",
    "lat": 14.8038531,
    "long": -15.9053689
  },
  {
    "place_name": "in",
    "lat": 48.819324,
    "long": 2.394771
  },
  {
    "place_name": "augue",
    "lat": 33.917649,
    "long": 106.309127
  },
  {
    "place_name": "lacus",
    "lat": 57.4746374,
    "long": 45.7930516
  },
  {
    "place_name": "morbi",
    "lat": 18.1224925,
    "long": -94.4632404
  },
  {
    "place_name": "lacinia",
    "lat": 34.0313411,
    "long": 131.3494901
  },
  {
    "place_name": "augue",
    "lat": 28.0154753,
    "long": 120.6626572
  },
  {
    "place_name": "pede",
    "lat": 12.7578433,
    "long": 7.2491037
  },
  {
    "place_name": "augue",
    "lat": 16.7670685,
    "long": 107.1454981
  },
  {
    "place_name": "malesuada",
    "lat": 55.7784607,
    "long": 27.9323817
  },
  {
    "place_name": "phasellus",
    "lat": 51.954075,
    "long": 85.800614
  },
  {
    "place_name": "at",
    "lat": 21.547821,
    "long": 107.971826
  },
  {
    "place_name": "hendrerit",
    "lat": 30.3659761,
    "long": 50.7936301
  },
  {
    "place_name": "justo",
    "lat": 50.6000912,
    "long": 94.9998807
  },
  {
    "place_name": "integer",
    "lat": -17.7357805,
    "long": -65.1922148
  },
  {
    "place_name": "quam",
    "lat": 7.95,
    "long": 4.983333
  },
  {
    "place_name": "habitasse",
    "lat": -1.054723,
    "long": -80.4524903
  },
  {
    "place_name": "nibh",
    "lat": 47.785421,
    "long": -3.2602564
  },
  {
    "place_name": "praesent",
    "lat": 37.9885749,
    "long": 23.7965135
  },
  {
    "place_name": "pede",
    "lat": 7.1473706,
    "long": 125.4889603
  },
  {
    "place_name": "lacinia",
    "lat": 40.2980046,
    "long": 43.765332
  },
  {
    "place_name": "nec",
    "lat": -8.6192014,
    "long": 122.2058206
  },
  {
    "place_name": "duis",
    "lat": 30.9991154,
    "long": -9.675904
  },
  {
    "place_name": "est",
    "lat": -24.1955744,
    "long": -65.2844271
  },
  {
    "place_name": "ut",
    "lat": 28.065524,
    "long": 112.217855
  },
  {
    "place_name": "ligula",
    "lat": -10.2689776,
    "long": 123.6755579
  },
  {
    "place_name": "dui",
    "lat": 20.0429063,
    "long": 110.354037
  },
  {
    "place_name": "blandit",
    "lat": 10.16575,
    "long": 166.01022
  },
  {
    "place_name": "odio",
    "lat": 9.9165452,
    "long": -84.1014639
  },
  {
    "place_name": "lacus",
    "lat": 26.27436,
    "long": 106.586543
  },
  {
    "place_name": "semper",
    "lat": 14.2553505,
    "long": 13.1134915
  },
  {
    "place_name": "fermentum",
    "lat": 32.321086,
    "long": 35.369953
  },
  {
    "place_name": "integer",
    "lat": 37.5236561,
    "long": -8.7860267
  },
  {
    "place_name": "rutrum",
    "lat": 22.279062,
    "long": 114.174463
  },
  {
    "place_name": "nisl",
    "lat": -6.9322,
    "long": 113.0284
  },
  {
    "place_name": "id",
    "lat": 55.9905778,
    "long": 92.7620647
  },
  {
    "place_name": "ac",
    "lat": 51.0144934,
    "long": 13.6972162
  },
  {
    "place_name": "commodo",
    "lat": 55.876771,
    "long": 37.4690832
  },
  {
    "place_name": "quis",
    "lat": 18.9120012,
    "long": -70.7490939
  },
  {
    "place_name": "tortor",
    "lat": 25.710538,
    "long": 116.754472
  },
  {
    "place_name": "accumsan",
    "lat": 6.2820276,
    "long": 10.2852532
  },
  {
    "place_name": "sed",
    "lat": 27.5277132,
    "long": 57.8651371
  },
  {
    "place_name": "eget",
    "lat": 42.3369976,
    "long": 23.5527975
  },
  {
    "place_name": "venenatis",
    "lat": -6.9401945,
    "long": 106.9247932
  },
  {
    "place_name": "sed",
    "lat": -7.4951399,
    "long": 107.532764
  },
  {
    "place_name": "aliquam",
    "lat": 41.9227482,
    "long": -8.5332804
  },
  {
    "place_name": "sed",
    "lat": -14.50557,
    "long": -71.155296
  },
  {
    "place_name": "non",
    "lat": -9.6481,
    "long": 124.5579
  },
  {
    "place_name": "ornare",
    "lat": 5.746649,
    "long": -75.977569
  },
  {
    "place_name": "ligula",
    "lat": 55.8240814,
    "long": 65.5756726
  },
  {
    "place_name": "eget",
    "lat": -7.5450262,
    "long": 111.6556388
  },
  {
    "place_name": "fusce",
    "lat": 5.329576,
    "long": 103.1369108
  },
  {
    "place_name": "dapibus",
    "lat": -6.8016236,
    "long": 108.6235004
  },
  {
    "place_name": "suspendisse",
    "lat": 48.1206294,
    "long": 17.1168892
  },
  {
    "place_name": "tincidunt",
    "lat": -10.10712,
    "long": -76.601273
  },
  {
    "place_name": "cras",
    "lat": 45.9559485,
    "long": 14.3016556
  },
  {
    "place_name": "sapien",
    "lat": 4.9801882,
    "long": 23.941751
  },
  {
    "place_name": "nulla",
    "lat": 43.082258,
    "long": 23.3786254
  },
  {
    "place_name": "id",
    "lat": 26.733954,
    "long": 107.943601
  },
  {
    "place_name": "vel",
    "lat": 32.6733576,
    "long": 35.7517448
  },
  {
    "place_name": "ligula",
    "lat": 56.4929786,
    "long": 84.9469715
  },
  {
    "place_name": "maecenas",
    "lat": 35.8614715,
    "long": 36.7981073
  },
  {
    "place_name": "nisl",
    "lat": -1.371775,
    "long": -48.3854399
  },
  {
    "place_name": "fermentum",
    "lat": 38.1731682,
    "long": 20.4899734
  },
  {
    "place_name": "suspendisse",
    "lat": 59.9959635,
    "long": 30.2984767
  },
  {
    "place_name": "aliquet",
    "lat": 0.2827307,
    "long": 34.7518631
  },
  {
    "place_name": "ipsum",
    "lat": 36.307064,
    "long": 120.39631
  },
  {
    "place_name": "elementum",
    "lat": 50.9486162,
    "long": 30.8786768
  },
  {
    "place_name": "eu",
    "lat": 31.17959,
    "long": 71.20946
  },
  {
    "place_name": "vestibulum",
    "lat": 43.9887651,
    "long": 18.1798837
  },
  {
    "place_name": "diam",
    "lat": 40.637939,
    "long": 69.59436
  },
  {
    "place_name": "sapien",
    "lat": 40.0672874,
    "long": 20.1045229
  },
  {
    "place_name": "luctus",
    "lat": 49.0998215,
    "long": 17.757483
  },
  {
    "place_name": "lobortis",
    "lat": 49.9579835,
    "long": 20.8378422
  },
  {
    "place_name": "justo",
    "lat": -23.0115939,
    "long": -44.5260106
  },
  {
    "place_name": "orci",
    "lat": 45.2415442,
    "long": 77.9726477
  },
  {
    "place_name": "dapibus",
    "lat": 14.7328144,
    "long": 0.9104334
  },
  {
    "place_name": "diam",
    "lat": 43.817071,
    "long": 125.323544
  },
  {
    "place_name": "morbi",
    "lat": 43.2220146,
    "long": 76.8512485
  },
  {
    "place_name": "magna",
    "lat": 9.791337,
    "long": -74.7975249
  },
  {
    "place_name": "eget",
    "lat": 43.24417,
    "long": 127.181168
  },
  {
    "place_name": "aliquam",
    "lat": 14.5937178,
    "long": 120.9676054
  },
  {
    "place_name": "semper",
    "lat": 18.0559583,
    "long": 106.2992912
  },
  {
    "place_name": "cursus",
    "lat": 26.641774,
    "long": 118.17771
  },
  {
    "place_name": "quisque",
    "lat": 53.6125259,
    "long": 9.9659855
  },
  {
    "place_name": "lacus",
    "lat": -24.7237668,
    "long": 31.1995755
  },
  {
    "place_name": "fusce",
    "lat": 8.6800991,
    "long": -82.855251
  },
  {
    "place_name": "turpis",
    "lat": 14.6417626,
    "long": 104.1466046
  },
  {
    "place_name": "quis",
    "lat": 49.6560847,
    "long": 18.7568843
  },
  {
    "place_name": "urna",
    "lat": -7.633333,
    "long": 108.133333
  },
  {
    "place_name": "tortor",
    "lat": 14.609579,
    "long": 120.993122
  },
  {
    "place_name": "posuere",
    "lat": -29.9026691,
    "long": -71.2519374
  },
  {
    "place_name": "felis",
    "lat": 30.916426,
    "long": 118.734651
  },
  {
    "place_name": "lacus",
    "lat": 38.03,
    "long": -87.58
  },
  {
    "place_name": "dapibus",
    "lat": 12.8834358,
    "long": -86.5425921
  },
  {
    "place_name": "est",
    "lat": -28.4134906,
    "long": -64.7629972
  },
  {
    "place_name": "risus",
    "lat": 53.1257,
    "long": 47.2041
  },
  {
    "place_name": "maecenas",
    "lat": 42.239717,
    "long": 27.776119
  },
  {
    "place_name": "justo",
    "lat": 7.45,
    "long": 2.85
  },
  {
    "place_name": "nulla",
    "lat": -24.9843096,
    "long": -65.5805252
  },
  {
    "place_name": "odio",
    "lat": 8.9721547,
    "long": 37.8618422
  },
  {
    "place_name": "magnis",
    "lat": 38.8812423,
    "long": 121.5830108
  },
  {
    "place_name": "nulla",
    "lat": 32.78,
    "long": -96.8
  },
  {
    "place_name": "nulla",
    "lat": 10.018056,
    "long": 125.663981
  },
  {
    "place_name": "nunc",
    "lat": 41.4390535,
    "long": -6.3931513
  },
  {
    "place_name": "est",
    "lat": 38.0329785,
    "long": 23.831904
  },
  {
    "place_name": "odio",
    "lat": 13.4211757,
    "long": 8.4760154
  },
  {
    "place_name": "tempus",
    "lat": 18.8839458,
    "long": 100.3031364
  },
  {
    "place_name": "quis",
    "lat": 1.0620859,
    "long": 104.2366983
  },
  {
    "place_name": "molestie",
    "lat": 19.6594511,
    "long": -71.5065631
  },
  {
    "place_name": "lacinia",
    "lat": 6.856106,
    "long": 79.917758
  },
  {
    "place_name": "magna",
    "lat": 34.363184,
    "long": 107.237743
  },
  {
    "place_name": "diam",
    "lat": -6.883367,
    "long": 107.6266329
  },
  {
    "place_name": "cum",
    "lat": 42.4573467,
    "long": 18.6442835
  },
  {
    "place_name": "massa",
    "lat": 58.7500889,
    "long": 16.8539366
  },
  {
    "place_name": "primis",
    "lat": 41.7156359,
    "long": 20.9777418
  },
  {
    "place_name": "primis",
    "lat": -3.8375079,
    "long": 119.8149736
  },
  {
    "place_name": "eleifend",
    "lat": 14.5672317,
    "long": 121.0298199
  },
  {
    "place_name": "elementum",
    "lat": 13.5438736,
    "long": 123.1446683
  },
  {
    "place_name": "metus",
    "lat": 51.3531567,
    "long": 39.3015305
  },
  {
    "place_name": "magna",
    "lat": 55.816131,
    "long": 37.8768991
  },
  {
    "place_name": "pede",
    "lat": 34.149491,
    "long": -118.099449
  },
  {
    "place_name": "elementum",
    "lat": 49.2937975,
    "long": 3.7636128
  },
  {
    "place_name": "at",
    "lat": 29.592024,
    "long": 106.227305
  },
  {
    "place_name": "molestie",
    "lat": 52.0990723,
    "long": 18.6045805
  },
  {
    "place_name": "enim",
    "lat": 36.284107,
    "long": 100.620031
  },
  {
    "place_name": "ut",
    "lat": 43.4945737,
    "long": 5.8978018
  },
  {
    "place_name": "penatibus",
    "lat": 8.3430803,
    "long": 126.3177067
  },
  {
    "place_name": "sapien",
    "lat": 31.5094268,
    "long": 116.8877403
  },
  {
    "place_name": "ipsum",
    "lat": 13.768042,
    "long": -2.072648
  },
  {
    "place_name": "lorem",
    "lat": 4.5778968,
    "long": 13.3500652
  },
  {
    "place_name": "lobortis",
    "lat": 48.32643,
    "long": 39.53366
  },
  {
    "place_name": "sit",
    "lat": 28.438851,
    "long": 120.564983
  },
  {
    "place_name": "massa",
    "lat": 39.6900895,
    "long": 115.9298599
  },
  {
    "place_name": "sem",
    "lat": 13.1317415,
    "long": 121.435112
  },
  {
    "place_name": "volutpat",
    "lat": 4.4054033,
    "long": 98.1680005
  },
  {
    "place_name": "curae",
    "lat": -29.56225,
    "long": 30.18109
  },
  {
    "place_name": "eu",
    "lat": -33.3106292,
    "long": 26.5255946
  },
  {
    "place_name": "velit",
    "lat": 48.0951271,
    "long": 114.5356247
  },
  {
    "place_name": "platea",
    "lat": -7.0510263,
    "long": 111.8330106
  },
  {
    "place_name": "in",
    "lat": -20.2582305,
    "long": 57.7544636
  },
  {
    "place_name": "risus",
    "lat": 45.6181396,
    "long": -73.8394482
  },
  {
    "place_name": "pretium",
    "lat": 52.5077777,
    "long": 5.4757709
  },
  {
    "place_name": "eget",
    "lat": 49.5730119,
    "long": 22.0608204
  },
  {
    "place_name": "in",
    "lat": -7.5861751,
    "long": 110.1908889
  },
  {
    "place_name": "nulla",
    "lat": 35.9240269,
    "long": -78.5829504
  },
  {
    "place_name": "justo",
    "lat": 36.0802326,
    "long": -86.8320743
  },
  {
    "place_name": "vestibulum",
    "lat": -20.3855743,
    "long": -43.5035777
  },
  {
    "place_name": "neque",
    "lat": 7.5958893,
    "long": 126.4361995
  },
  {
    "place_name": "turpis",
    "lat": 22.5142785,
    "long": 103.8788769
  },
  {
    "place_name": "integer",
    "lat": 8.7407047,
    "long": 124.7777043
  },
  {
    "place_name": "nulla",
    "lat": 36.4626965,
    "long": 10.7492466
  },
  {
    "place_name": "eleifend",
    "lat": 11.462476,
    "long": 122.7807
  },
  {
    "place_name": "accumsan",
    "lat": 33.1401715,
    "long": 119.7889248
  },
  {
    "place_name": "molestie",
    "lat": -8.6467,
    "long": 121.1244
  },
  {
    "place_name": "amet",
    "lat": 7.834501,
    "long": 124.106681
  },
  {
    "place_name": "quis",
    "lat": 7.156124,
    "long": 79.949646
  },
  {
    "place_name": "orci",
    "lat": 12.5050457,
    "long": 123.4144449
  },
  {
    "place_name": "aenean",
    "lat": 5.5864963,
    "long": 95.3514016
  },
  {
    "place_name": "in",
    "lat": 62.587277,
    "long": 40.61071
  },
  {
    "place_name": "molestie",
    "lat": -20.210385,
    "long": 57.6240731
  },
  {
    "place_name": "donec",
    "lat": -34.6795558,
    "long": -58.5577501
  },
  {
    "place_name": "luctus",
    "lat": 13.3023013,
    "long": 123.6374208
  },
  {
    "place_name": "nulla",
    "lat": -8.2837447,
    "long": 123.2812562
  },
  {
    "place_name": "tincidunt",
    "lat": 49.8046835,
    "long": 73.1093826
  },
  {
    "place_name": "a",
    "lat": 12.6107413,
    "long": 122.2756648
  },
  {
    "place_name": "curae",
    "lat": 37.6883607,
    "long": 22.7120308
  },
  {
    "place_name": "duis",
    "lat": 0.74692,
    "long": 124.26106
  },
  {
    "place_name": "integer",
    "lat": 20.3278427,
    "long": -89.6440716
  },
  {
    "place_name": "odio",
    "lat": 47.4325252,
    "long": 19.157136
  },
  {
    "place_name": "nisi",
    "lat": 40.44,
    "long": -79.98
  },
  {
    "place_name": "vulputate",
    "lat": 23.9211737,
    "long": -106.8915948
  },
  {
    "place_name": "aliquam",
    "lat": 45.1181541,
    "long": 18.6405775
  },
  {
    "place_name": "ipsum",
    "lat": 67.286069,
    "long": 14.418571
  },
  {
    "place_name": "eu",
    "lat": 30.378326,
    "long": 111.450006
  },
  {
    "place_name": "ridiculus",
    "lat": 10.0620494,
    "long": 123.444424
  },
  {
    "place_name": "consequat",
    "lat": 49.3962513,
    "long": 102.6972588
  },
  {
    "place_name": "adipiscing",
    "lat": 57.7236265,
    "long": 11.7360101
  },
  {
    "place_name": "porta",
    "lat": 32.060255,
    "long": 118.796877
  },
  {
    "place_name": "ut",
    "lat": 37.9220464,
    "long": 23.454723
  },
  {
    "place_name": "augue",
    "lat": 27.27476,
    "long": -80.31823
  },
  {
    "place_name": "leo",
    "lat": 45.1364794,
    "long": 20.0820648
  },
  {
    "place_name": "lorem",
    "lat": 35.2234722,
    "long": 137.0285083
  },
  {
    "place_name": "quis",
    "lat": 18.8729115,
    "long": -97.0564451
  },
  {
    "place_name": "ligula",
    "lat": 9.3090846,
    "long": 15.7938069
  },
  {
    "place_name": "in",
    "lat": 47.49714,
    "long": 96.80311
  },
  {
    "place_name": "eu",
    "lat": 41.2699428,
    "long": -8.2236098
  },
  {
    "place_name": "donec",
    "lat": 46.2983568,
    "long": -0.8937702
  },
  {
    "place_name": "fermentum",
    "lat": 38.093189,
    "long": 114.478864
  },
  {
    "place_name": "tempor",
    "lat": 43.9480111,
    "long": 39.3104788
  },
  {
    "place_name": "volutpat",
    "lat": 34.8061587,
    "long": 70.9784562
  },
  {
    "place_name": "venenatis",
    "lat": 13.81967,
    "long": 100.0601382
  },
  {
    "place_name": "in",
    "lat": 54.4026022,
    "long": 22.0193739
  },
  {
    "place_name": "justo",
    "lat": 40.1208803,
    "long": -7.1636797
  },
  {
    "place_name": "nibh",
    "lat": 10.3696393,
    "long": -66.9571026
  },
  {
    "place_name": "lacinia",
    "lat": 35.36674,
    "long": 36.39359
  },
  {
    "place_name": "justo",
    "lat": 59.4907385,
    "long": 33.7584959
  },
  {
    "place_name": "suscipit",
    "lat": 5.31494,
    "long": 95.9706
  },
  {
    "place_name": "eu",
    "lat": 40.407578,
    "long": 118.949684
  },
  {
    "place_name": "eros",
    "lat": 47.0200861,
    "long": -68.1434963
  },
  {
    "place_name": "in",
    "lat": -3.7331933,
    "long": 128.1530099
  },
  {
    "place_name": "duis",
    "lat": 31.261447,
    "long": 35.214862
  },
  {
    "place_name": "vivamus",
    "lat": 51.0279541,
    "long": 18.4228918
  },
  {
    "place_name": "curae",
    "lat": 59.4050955,
    "long": 17.9551008
  },
  {
    "place_name": "proin",
    "lat": 50.0804826,
    "long": 16.9364145
  },
  {
    "place_name": "ipsum",
    "lat": 22.7238445,
    "long": -80.9041817
  },
  {
    "place_name": "nulla",
    "lat": 55.7813005,
    "long": 37.6003808
  },
  {
    "place_name": "ligula",
    "lat": 56.1252914,
    "long": 86.0314623
  },
  {
    "place_name": "pellentesque",
    "lat": -14.5460011,
    "long": 48.7542899
  },
  {
    "place_name": "hac",
    "lat": 14.8892367,
    "long": -24.2940282
  },
  {
    "place_name": "nisl",
    "lat": 14.5444432,
    "long": -91.0891378
  },
  {
    "place_name": "et",
    "lat": 48.239431,
    "long": 129.3909831
  },
  {
    "place_name": "nibh",
    "lat": 41.1,
    "long": 23.633333
  },
  {
    "place_name": "proin",
    "lat": 42.8867657,
    "long": 26.44965
  },
  {
    "place_name": "a",
    "lat": -8.509828,
    "long": 118.623299
  },
  {
    "place_name": "accumsan",
    "lat": 8.931132,
    "long": -75.030651
  },
  {
    "place_name": "donec",
    "lat": 5.0378453,
    "long": 21.2099808
  },
  {
    "place_name": "vestibulum",
    "lat": 35.9202328,
    "long": 39.1595698
  },
  {
    "place_name": "molestie",
    "lat": 34.748256,
    "long": 113.61285
  },
  {
    "place_name": "sed",
    "lat": 32.060255,
    "long": 118.796877
  },
  {
    "place_name": "phasellus",
    "lat": 41.725392,
    "long": 45.3350791
  },
  {
    "place_name": "et",
    "lat": -7.1927733,
    "long": -48.204827
  },
  {
    "place_name": "nulla",
    "lat": 35.083703,
    "long": 97.910792
  },
  {
    "place_name": "id",
    "lat": 14.5672317,
    "long": 121.0298199
  },
  {
    "place_name": "lectus",
    "lat": 26.111545,
    "long": 88.7178035
  },
  {
    "place_name": "sit",
    "lat": 19.4146406,
    "long": -99.1395519
  },
  {
    "place_name": "vehicula",
    "lat": 59.4989642,
    "long": 24.836672
  },
  {
    "place_name": "at",
    "lat": 47.66389,
    "long": 36.25633
  },
  {
    "place_name": "integer",
    "lat": 57.6593247,
    "long": 11.8915238
  },
  {
    "place_name": "donec",
    "lat": 30.07728,
    "long": 103.848396
  },
  {
    "place_name": "lectus",
    "lat": 52.35536,
    "long": 16.519559
  },
  {
    "place_name": "id",
    "lat": 41.3905327,
    "long": -8.3219318
  },
  {
    "place_name": "duis",
    "lat": 24.8658422,
    "long": 121.2969674
  },
  {
    "place_name": "nulla",
    "lat": 13.9008751,
    "long": 121.486094
  },
  {
    "place_name": "nulla",
    "lat": 46.36313,
    "long": 30.64891
  },
  {
    "place_name": "felis",
    "lat": 16.2584167,
    "long": 97.725376
  },
  {
    "place_name": "rhoncus",
    "lat": 42.2827426,
    "long": -83.1488186
  },
  {
    "place_name": "pede",
    "lat": 65.1474586,
    "long": -13.6711979
  },
  {
    "place_name": "curabitur",
    "lat": 29.1416432,
    "long": 119.7889248
  },
  {
    "place_name": "erat",
    "lat": 40.142128,
    "long": 94.661966
  },
  {
    "place_name": "aliquet",
    "lat": -6.8878234,
    "long": 107.9604706
  },
  {
    "place_name": "vel",
    "lat": 53.3004898,
    "long": -6.2634596
  },
  {
    "place_name": "sit",
    "lat": 54.3817334,
    "long": 18.2912258
  },
  {
    "place_name": "sit",
    "lat": -25.2739709,
    "long": 32.8084496
  },
  {
    "place_name": "morbi",
    "lat": 35.591349,
    "long": 108.104291
  },
  {
    "place_name": "quam",
    "lat": 51.1691046,
    "long": 18.3941226
  },
  {
    "place_name": "tristique",
    "lat": 39.8244606,
    "long": -8.3790205
  },
  {
    "place_name": "lacus",
    "lat": -6.8272076,
    "long": -39.2791011
  },
  {
    "place_name": "vivamus",
    "lat": 48.7911354,
    "long": 26.6912362
  },
  {
    "place_name": "sem",
    "lat": 21.853708,
    "long": 106.761519
  },
  {
    "place_name": "massa",
    "lat": -8.2867,
    "long": 113.4874
  },
  {
    "place_name": "rhoncus",
    "lat": 29.2444816,
    "long": 52.7830627
  },
  {
    "place_name": "ut",
    "lat": 55.747854,
    "long": 37.7783839
  },
  {
    "place_name": "interdum",
    "lat": 37.775349,
    "long": 117.385256
  },
  {
    "place_name": "ullamcorper",
    "lat": 45.697904,
    "long": 0.964671
  },
  {
    "place_name": "habitasse",
    "lat": 34.481923,
    "long": 102.142511
  },
  {
    "place_name": "erat",
    "lat": 18.2904086,
    "long": 121.4356759
  },
  {
    "place_name": "in",
    "lat": 21.918725,
    "long": 111.053561
  },
  {
    "place_name": "odio",
    "lat": 6.394353,
    "long": -75.256581
  },
  {
    "place_name": "fusce",
    "lat": 34.8511873,
    "long": -92.3320235
  },
  {
    "place_name": "luctus",
    "lat": 17.4792157,
    "long": 121.6180515
  },
  {
    "place_name": "ultrices",
    "lat": 29.649109,
    "long": 117.136252
  },
  {
    "place_name": "curae",
    "lat": 38.343295,
    "long": 114.684014
  },
  {
    "place_name": "nibh",
    "lat": 39.886547,
    "long": 116.989574
  },
  {
    "place_name": "odio",
    "lat": 53.7322394,
    "long": 33.3332803
  },
  {
    "place_name": "vitae",
    "lat": -0.5388381,
    "long": 37.4596409
  },
  {
    "place_name": "dui",
    "lat": 53.7776927,
    "long": 15.8278204
  },
  {
    "place_name": "nam",
    "lat": -0.69832,
    "long": -77.14083
  },
  {
    "place_name": "proin",
    "lat": 58.4078726,
    "long": 51.1841486
  },
  {
    "place_name": "sagittis",
    "lat": 37.6156855,
    "long": 62.1571349
  },
  {
    "place_name": "quam",
    "lat": -39.5365944,
    "long": 176.8492097
  },
  {
    "place_name": "curae",
    "lat": 44.8353965,
    "long": 38.8764177
  },
  {
    "place_name": "lobortis",
    "lat": 64.7000006,
    "long": 43.3910351
  },
  {
    "place_name": "et",
    "lat": 14.5033033,
    "long": -90.5721841
  },
  {
    "place_name": "in",
    "lat": 43.3572645,
    "long": 16.9520477
  },
  {
    "place_name": "tincidunt",
    "lat": -31.4115298,
    "long": -64.2457699
  },
  {
    "place_name": "sapien",
    "lat": -0.8922447,
    "long": 119.8504075
  },
  {
    "place_name": "magna",
    "lat": 59.9173309,
    "long": 10.8180311
  },
  {
    "place_name": "ipsum",
    "lat": -3.9879753,
    "long": -79.3535714
  },
  {
    "place_name": "purus",
    "lat": 36.6454207,
    "long": 52.9009502
  },
  {
    "place_name": "eu",
    "lat": 32.084041,
    "long": 34.887762
  },
  {
    "place_name": "in",
    "lat": -29.2360837,
    "long": -51.869606
  },
  {
    "place_name": "aenean",
    "lat": -20.3652719,
    "long": -43.4150073
  },
  {
    "place_name": "eros",
    "lat": -8.0433348,
    "long": 113.0762954
  }
]